CCSDS_OMM_VERS = 2.0
CREATION_DATE  = 
ORIGINATOR     = 

OBJECT_NAME    = DELTA 2 R/B(1)
OBJECT_ID      = 1990-008B
CENTER_NAME    = EARTH
REF_FRAME      = TEME
TIME_SYSTEM    = UTC
MEAN_ELEMENT_THEORY = SGP/SGP4

EPOCH          = 2025-12-22T04:21:09.162720
MEAN_MOTION    = 15.45945386
ECCENTRICITY   = .0110837
INCLINATION    = 35.6079
RA_OF_ASC_NODE = 319.5298
ARG_OF_PERICENTER = 264.1613
MEAN_ANOMALY   = 94.6476

EPHEMERIS_TYPE = 0
CLASSIFICATION_TYPE = U
NORAD_CAT_ID   = 20453
ELEMENT_SET_NO = 999
REV_AT_EPOCH   = 91409
BSTAR          = .71322E-3
MEAN_MOTION_DOT = .45731E-3
MEAN_MOTION_DDOT = 0

CCSDS_OMM_VERS = 2.0
CREATION_DATE  = 
ORIGINATOR     = 

OBJECT_NAME    = COSMOS 2058
OBJECT_ID      = 1990-010A
CENTER_NAME    = EARTH
REF_FRAME      = TEME
TIME_SYSTEM    = UTC
MEAN_ELEMENT_THEORY = SGP/SGP4

EPOCH          = 2025-12-22T02:21:42.092640
MEAN_MOTION    = 15.10558143
ECCENTRICITY   = .000916
INCLINATION    = 82.4704
RA_OF_ASC_NODE = 123.8256
ARG_OF_PERICENTER = 236.1266
MEAN_ANOMALY   = 123.9093

EPHEMERIS_TYPE = 0
CLASSIFICATION_TYPE = U
NORAD_CAT_ID   = 20465
ELEMENT_SET_NO = 999
REV_AT_EPOCH   = 93052
BSTAR          = .30996E-3
MEAN_MOTION_DOT = .5145E-4
MEAN_MOTION_DDOT = 0

CCSDS_OMM_VERS = 2.0
CREATION_DATE  = 
ORIGINATOR     = 

OBJECT_NAME    = SL-14 R/B
OBJECT_ID      = 1990-010B
CENTER_NAME    = EARTH
REF_FRAME      = TEME
TIME_SYSTEM    = UTC
MEAN_ELEMENT_THEORY = SGP/SGP4

EPOCH          = 2025-12-21T17:11:39.830208
MEAN_MOTION    = 14.83478988
ECCENTRICITY   = .001939
INCLINATION    = 82.5020
RA_OF_ASC_NODE = 340.6157
ARG_OF_PERICENTER = 192.3015
MEAN_ANOMALY   = 167.7730

EPHEMERIS_TYPE = 0
CLASSIFICATION_TYPE = U
NORAD_CAT_ID   = 20466
ELEMENT_SET_NO = 999
REV_AT_EPOCH   = 91692
BSTAR          = .43886E-4
MEAN_MOTION_DOT = .386E-5
MEAN_MOTION_DDOT = 0

CCSDS_OMM_VERS = 2.0
CREATION_DATE  = 
ORIGINATOR     = 

OBJECT_NAME    = SL-14 R/B
OBJECT_ID      = 1990-018B
CENTER_NAME    = EARTH
REF_FRAME      = TEME
TIME_SYSTEM    = UTC
MEAN_ELEMENT_THEORY = SGP/SGP4

EPOCH          = 2025-12-22T03:09:52.209792
MEAN_MOTION    = 14.82055950
ECCENTRICITY   = .0016188
INCLINATION    = 82.5218
RA_OF_ASC_NODE = 295.5863
ARG_OF_PERICENTER = 353.0628
MEAN_ANOMALY   = 7.0359

EPHEMERIS_TYPE = 0
CLASSIFICATION_TYPE = U
NORAD_CAT_ID   = 20511
ELEMENT_SET_NO = 999
REV_AT_EPOCH   = 91109
BSTAR          = .57667E-4
MEAN_MOTION_DOT = .482E-5
MEAN_MOTION_DDOT = 0

CCSDS_OMM_VERS = 2.0
CREATION_DATE  = 
ORIGINATOR     = 

OBJECT_NAME    = HST
OBJECT_ID      = 1990-037B
CENTER_NAME    = EARTH
REF_FRAME      = TEME
TIME_SYSTEM    = UTC
MEAN_ELEMENT_THEORY = SGP/SGP4

EPOCH          = 2025-12-21T20:52:47.199072
MEAN_MOTION    = 15.28161696
ECCENTRICITY   = .0002211
INCLINATION    = 28.4659
RA_OF_ASC_NODE = 210.3388
ARG_OF_PERICENTER = 349.8768
MEAN_ANOMALY   = 10.1783

EPHEMERIS_TYPE = 0
CLASSIFICATION_TYPE = U
NORAD_CAT_ID   = 20580
ELEMENT_SET_NO = 999
REV_AT_EPOCH   = 76139
BSTAR          = .20469E-3
MEAN_MOTION_DOT = .6006E-4
MEAN_MOTION_DDOT = 0

CCSDS_OMM_VERS = 2.0
CREATION_DATE  = 
ORIGINATOR     = 

OBJECT_NAME    = SL-16 R/B
OBJECT_ID      = 1990-046B
CENTER_NAME    = EARTH
REF_FRAME      = TEME
TIME_SYSTEM    = UTC
MEAN_ELEMENT_THEORY = SGP/SGP4

EPOCH          = 2025-12-21T17:22:20.436960
MEAN_MOTION    = 14.14998422
ECCENTRICITY   = .0012072
INCLINATION    = 70.9993
RA_OF_ASC_NODE = 101.6548
ARG_OF_PERICENTER = 57.4695
MEAN_ANOMALY   = 302.7592

EPHEMERIS_TYPE = 0
CLASSIFICATION_TYPE = U
NORAD_CAT_ID   = 20625
ELEMENT_SET_NO = 999
REV_AT_EPOCH   = 83736
BSTAR          = -.10282E-3
MEAN_MOTION_DOT = -.247E-5
MEAN_MOTION_DDOT = 0

CCSDS_OMM_VERS = 2.0
CREATION_DATE  = 
ORIGINATOR     = 

OBJECT_NAME    = COSMOS 2084
OBJECT_ID      = 1990-055A
CENTER_NAME    = EARTH
REF_FRAME      = TEME
TIME_SYSTEM    = UTC
MEAN_ELEMENT_THEORY = SGP/SGP4

EPOCH          = 2025-12-22T01:39:31.847904
MEAN_MOTION    = 15.05070935
ECCENTRICITY   = .0030206
INCLINATION    = 62.7893
RA_OF_ASC_NODE = 240.2038
ARG_OF_PERICENTER = 175.9512
MEAN_ANOMALY   = 184.1838

EPHEMERIS_TYPE = 0
CLASSIFICATION_TYPE = U
NORAD_CAT_ID   = 20663
ELEMENT_SET_NO = 999
REV_AT_EPOCH   = 92463
BSTAR          = .19505E-3
MEAN_MOTION_DOT = .2608E-4
MEAN_MOTION_DDOT = 0

CCSDS_OMM_VERS = 2.0
CREATION_DATE  = 
ORIGINATOR     = 

OBJECT_NAME    = SL-6 R/B(2)
OBJECT_ID      = 1990-055D
CENTER_NAME    = EARTH
REF_FRAME      = TEME
TIME_SYSTEM    = UTC
MEAN_ELEMENT_THEORY = SGP/SGP4

EPOCH          = 2025-12-22T03:32:40.003008
MEAN_MOTION    = 15.03114929
ECCENTRICITY   = .0013749
INCLINATION    = 62.7811
RA_OF_ASC_NODE = 157.4476
ARG_OF_PERICENTER = 315.2546
MEAN_ANOMALY   = 44.7443

EPHEMERIS_TYPE = 0
CLASSIFICATION_TYPE = U
NORAD_CAT_ID   = 20666
ELEMENT_SET_NO = 999
REV_AT_EPOCH   = 92653
BSTAR          = .15769E-3
MEAN_MOTION_DOT = .1944E-4
MEAN_MOTION_DDOT = 0

CCSDS_OMM_VERS = 2.0
CREATION_DATE  = 
ORIGINATOR     = 

OBJECT_NAME    = SL-8 R/B
OBJECT_ID      = 1990-078B
CENTER_NAME    = EARTH
REF_FRAME      = TEME
TIME_SYSTEM    = UTC
MEAN_ELEMENT_THEORY = SGP/SGP4

EPOCH          = 2025-12-22T03:46:35.056416
MEAN_MOTION    = 14.86273173
ECCENTRICITY   = .0370508
INCLINATION    = 82.9057
RA_OF_ASC_NODE = 320.8773
ARG_OF_PERICENTER = 274.2000
MEAN_ANOMALY   = 81.6966

EPHEMERIS_TYPE = 0
CLASSIFICATION_TYPE = U
NORAD_CAT_ID   = 20775
ELEMENT_SET_NO = 999
REV_AT_EPOCH   = 79777
BSTAR          = .53566E-3
MEAN_MOTION_DOT = .1733E-3
MEAN_MOTION_DDOT = 0

CCSDS_OMM_VERS = 2.0
CREATION_DATE  = 
ORIGINATOR     = 

OBJECT_NAME    = SL-8 R/B
OBJECT_ID      = 1991-006B
CENTER_NAME    = EARTH
REF_FRAME      = TEME
TIME_SYSTEM    = UTC
MEAN_ELEMENT_THEORY = SGP/SGP4

EPOCH          = 2025-12-22T03:08:37.947264
MEAN_MOTION    = 13.77491822
ECCENTRICITY   = .0021196
INCLINATION    = 82.9418
RA_OF_ASC_NODE = 227.7275
ARG_OF_PERICENTER = 251.8892
MEAN_ANOMALY   = 218.9754

EPHEMERIS_TYPE = 0
CLASSIFICATION_TYPE = U
NORAD_CAT_ID   = 21088
ELEMENT_SET_NO = 999
REV_AT_EPOCH   = 75339
BSTAR          = .10731E-3
MEAN_MOTION_DOT = .122E-5
MEAN_MOTION_DDOT = 0

CCSDS_OMM_VERS = 2.0
CREATION_DATE  = 
ORIGINATOR     = 

OBJECT_NAME    = OKEAN-3
OBJECT_ID      = 1991-039A
CENTER_NAME    = EARTH
REF_FRAME      = TEME
TIME_SYSTEM    = UTC
MEAN_ELEMENT_THEORY = SGP/SGP4

EPOCH          = 2025-12-22T03:05:16.820160
MEAN_MOTION    = 15.04176989
ECCENTRICITY   = .0013548
INCLINATION    = 82.5171
RA_OF_ASC_NODE = 51.9602
ARG_OF_PERICENTER = 230.0682
MEAN_ANOMALY   = 129.9354

EPHEMERIS_TYPE = 0
CLASSIFICATION_TYPE = U
NORAD_CAT_ID   = 21397
ELEMENT_SET_NO = 999
REV_AT_EPOCH   = 85337
BSTAR          = .19074E-3
MEAN_MOTION_DOT = .2679E-4
MEAN_MOTION_DDOT = 0

CCSDS_OMM_VERS = 2.0
CREATION_DATE  = 
ORIGINATOR     = 

OBJECT_NAME    = COSMOS 2151
OBJECT_ID      = 1991-042A
CENTER_NAME    = EARTH
REF_FRAME      = TEME
TIME_SYSTEM    = UTC
MEAN_ELEMENT_THEORY = SGP/SGP4

EPOCH          = 2025-12-22T03:56:43.409184
MEAN_MOTION    = 14.99720563
ECCENTRICITY   = .0011807
INCLINATION    = 82.4963
RA_OF_ASC_NODE = 158.4205
ARG_OF_PERICENTER = 326.8457
MEAN_ANOMALY   = 33.2026

EPHEMERIS_TYPE = 0
CLASSIFICATION_TYPE = U
NORAD_CAT_ID   = 21422
ELEMENT_SET_NO = 999
REV_AT_EPOCH   = 85157
BSTAR          = .13101E-3
MEAN_MOTION_DOT = .1645E-4
MEAN_MOTION_DDOT = 0

